{"type": "FeatureCollection", "features": [ {"type": "Feature", "properties": {"norad_id": 66555, "name": "ELECTRON KICK STAGE R/B", "group": "last-30-days", "lat": 27.09992795080061, "lon": 125.4667817463521, "alt_km": 460.2624337912612, "timestamp": "2025-12-06T20:37:54.813485+00:00", "meta": {"OBJECT_NAME": "ELECTRON KICK STAGE R/B", "OBJECT_ID": "2025-267B", "EPOCH": "2025-12-06T14:11:19.744800", "MEAN_MOTION": 15.32375133, "ECCENTRICITY": 0.00070081, "INCLINATION": 42.0184, "RA_OF_ASC_NODE": 92.3831, "ARG_OF_PERICENTER": 7.6662, "MEAN_ANOMALY": 352.4282, "EPHEMERIS_TYPE": 0, "CLASSIFICATION_TYPE": "U", "NORAD_CAT_ID": 66555, "ELEMENT_SET_NO": 999, "REV_AT_EPOCH": 246, "BSTAR": 0.0011819859, "MEAN_MOTION_DOT": 0.00037718, "MEAN_MOTION_DDOT": 0}, "tle": {"line1": "1 66555U 25267B   25340.59120075  .00037718  00000+0  11820-2 0  9991", "line2": "2 66555  42.0184  92.3831 0007008   7.6662 352.4282 15.32375133  2467"}}, "geometry": {"type": "Point", "coordinates": [125.4667817463521, 27.09992795080061]}}, {"type": "Feature", "properties": {"norad_id": 66557, "name": "STARLINK-35699", "group": "last-30-days", "lat": -30.127573189686462, "lon": 117.17389252699006, "alt_km": 387.03143575525155, "timestamp": "2025-12-06T20:37:54.813496+00:00", "meta": {"OBJECT_NAME": "STARLINK-35699", "OBJECT_ID": "2025-268A", "EPOCH": "2025-12-06T14:00:01.999872", "MEAN_MOTION": 15.62108104, "ECCENTRICITY": 0.00013295, "INCLINATION": 43.0001, "RA_OF_ASC_NODE": 157.3356, "ARG_OF_PERICENTER": 262.9312, "MEAN_ANOMALY": 294.6087, "EPHEMERIS_TYPE": 0, "CLASSIFICATION_TYPE": "U", "NORAD_CAT_ID": 66557, "ELEMENT_SET_NO": 999, "REV_AT_EPOCH": 367, "BSTAR": -0.025302469, "MEAN_MOTION_DOT": -0.02002901, "MEAN_MOTION_DDOT": 0}, "tle": {"line1": "1 66557U 25268A   25340.58335648 -.02002901  00000+0 -25302-1 0  9996", "line2": "2 66557  43.0001 157.3356 0001329 262.9312 294.6087 15.62108104  3679"}}, "geometry": {"type": "Point", "coordinates": [117.17389252699006, -30.127573189686462]}}, {"type": "Feature", "properties": {"norad_id": 66558, "name": "STARLINK-35695", "group": "last-30-days", "lat": -29.093623241001758, "lon": 119.02182974533943, "alt_km": 386.9637829035282, "timestamp": "2025-12-06T20:37:54.813512+00:00", "meta": {"OBJECT_NAME": "STARLINK-35695", "OBJECT_ID": "2025-268B", "EPOCH": "2025-12-06T14:00:01.999872", "MEAN_MOTION": 15.62103988, "ECCENTRICITY": 0.00012905, "INCLINATION": 43, "RA_OF_ASC_NODE": 157.3309, "ARG_OF_PERICENTER": 266.0387, "MEAN_ANOMALY": 293.4202, "EPHEMERIS_TYPE": 0, "CLASSIFICATION_TYPE": "U", "NORAD_CAT_ID": 66558, "ELEMENT_SET_NO": 999, "REV_AT_EPOCH": 367, "BSTAR": -0.025231237, "MEAN_MOTION_DOT": -0.01997645, "MEAN_MOTION_DDOT": 0}, "tle": {"line1": "1 66558U 25268B   25340.58335648 -.01997645  00000+0 -25231-1 0  9995", "line2": "2 66558  43.0000 157.3309 0001290 266.0387 293.4202 15.62103988  3672"}}, "geometry": {"type": "Point", "coordinates": [119.02182974533943, -29.093623241001758]}}, {"type": "Feature", "properties": {"norad_id": 66559, "name": "STARLINK-35419", "group": "last-30-days", "lat": -28.03415310968033, "lon": 120.83458684325892, "alt_km": 386.9181204904444, "timestamp": "2025-12-06T20:37:54.813523+00:00", "meta": {"OBJECT_NAME": "STARLINK-35419", "OBJECT_ID": "2025-268C", "EPOCH": "2025-12-06T14:00:01.999872", "MEAN_MOTION": 15.62108715, "ECCENTRICITY": 0.00013879, "INCLINATION": 43.0002, "RA_OF_ASC_NODE": 157.3269, "ARG_OF_PERICENTER": 262.8098, "MEAN_ANOMALY": 298.5612, "EPHEMERIS_TYPE": 0, "CLASSIFICATION_TYPE": "U", "NORAD_CAT_ID": 66559, "ELEMENT_SET_NO": 999, "REV_AT_EPOCH": 368, "BSTAR": -0.025284204, "MEAN_MOTION_DOT": -0.0200172, "MEAN_MOTION_DDOT": 0}, "tle": {"line1": "1 66559U 25268C   25340.58335648 -.02001720  00000+0 -25284-1 0  9995", "line2": "2 66559  43.0002 157.3269 0001387 262.8098 298.5612 15.62108715  3685"}}, "geometry": {"type": "Point", "coordinates": [120.83458684325892, -28.03415310968033]}}, {"type": "Feature", "properties": {"norad_id": 66560, "name": "STARLINK-35411", "group": "last-30-days", "lat": -26.949951234733245, "lon": 122.61259618859623, "alt_km": 386.919739130316, "timestamp": "2025-12-06T20:37:54.813533+00:00", "meta": {"OBJECT_NAME": "STARLINK-35411", "OBJECT_ID": "2025-268D", "EPOCH": "2025-12-06T14:00:01.999872", "MEAN_MOTION": 15.62104978, "ECCENTRICITY": 0.00013908, "INCLINATION": 42.9997, "RA_OF_ASC_NODE": 157.3228, "ARG_OF_PERICENTER": 260.3162, "MEAN_ANOMALY": 302.9758, "EPHEMERIS_TYPE": 0, "CLASSIFICATION_TYPE": "U", "NORAD_CAT_ID": 66560, "ELEMENT_SET_NO": 999, "REV_AT_EPOCH": 368, "BSTAR": -0.025259579, "MEAN_MOTION_DOT": -0.01999755, "MEAN_MOTION_DDOT": 0}, "tle": {"line1": "1 66560U 25268D   25340.58335648 -.01999755  00000+0 -25260-1 0  9994", "line2": "2 66560  42.9997 157.3228 0001390 260.3162 302.9758 15.62104978  3680"}}, "geometry": {"type": "Point", "coordinates": [122.61259618859623, -26.949951234733245]}}, {"type": "Feature", "properties": {"norad_id": 66561, "name": "STARLINK-35305", "group": "last-30-days", "lat": -24.71882329989412, "lon": 126.06349640069975, "alt_km": 386.82195198224235, "timestamp": "2025-12-06T20:37:54.813546+00:00", "meta": {"OBJECT_NAME": "STARLINK-35305", "OBJECT_ID": "2025-268E", "EPOCH": "2025-12-06T14:00:01.999872", "MEAN_MOTION": 15.62105963, "ECCENTRICITY": 0.0001387, "INCLINATION": 42.9995, "RA_OF_ASC_NODE": 157.3123, "ARG_OF_PERICENTER": 259.9945, "MEAN_ANOMALY": 307.1314, "EPHEMERIS_TYPE": 0, "CLASSIFICATION_TYPE": "U", "NORAD_CAT_ID": 66561, "ELEMENT_SET_NO": 999, "REV_AT_EPOCH": 363, "BSTAR": -0.02527016, "MEAN_MOTION_DOT": -0.02000555, "MEAN_MOTION_DDOT": 0}, "tle": {"line1": "1 66561U 25268E   25340.58335648 -.02000555  00000+0 -25270-1 0  9998", "line2": "2 66561  42.9995 157.3123 0001387 259.9945 307.1314 15.62105963  3637"}}, "geometry": {"type": "Point", "coordinates": [126.06349640069975, -24.71882329989412]}}, {"type": "Feature", "properties": {"norad_id": 66562, "name": "STARLINK-35579", "group": "last-30-days", "lat": -25.84453814238119, "lon": 124.35357343578325, "alt_km": 386.9095493329223, "timestamp": "2025-12-06T20:37:54.813556+00:00", "meta": {"OBJECT_NAME": "STARLINK-35579", "OBJECT_ID": "2025-268F", "EPOCH": "2025-12-06T14:00:01.999872", "MEAN_MOTION": 15.62105813, "ECCENTRICITY": 0.00013247, "INCLINATION": 42.9996, "RA_OF_ASC_NODE": 157.3166, "ARG_OF_PERICENTER": 259.382, "MEAN_ANOMALY": 305.8275, "EPHEMERIS_TYPE": 0, "CLASSIFICATION_TYPE": "U", "NORAD_CAT_ID": 66562, "ELEMENT_SET_NO": 999, "REV_AT_EPOCH": 368, "BSTAR": -0.025272093, "MEAN_MOTION_DOT": -0.02000632, "MEAN_MOTION_DDOT": 0}, "tle": {"line1": "1 66562U 25268F   25340.58335648 -.02000632  00000+0 -25272-1 0  9997", "line2": "2 66562  42.9996 157.3166 0001324 259.3820 305.8275 15.62105813  3683"}}, "geometry": {"type": "Point", "coordinates": [124.35357343578325, -25.84453814238119]}}, {"type": "Feature", "properties": {"norad_id": 66563, "name": "STARLINK-35437", "group": "last-30-days", "lat": -23.573898911586923, "lon": 127.74208222119374, "alt_km": 386.78657522173035, "timestamp": "2025-12-06T20:37:54.813567+00:00", "meta": {"OBJECT_NAME": "STARLINK-35437", "OBJECT_ID": "2025-268G", "EPOCH": "2025-12-06T14:00:01.999872", "MEAN_MOTION": 15.62106782, "ECCENTRICITY": 0.00013255, "INCLINATION": 42.9997, "RA_OF_ASC_NODE": 157.3072, "ARG_OF_PERICENTER": 259.9504, "MEAN_ANOMALY": 309.0934, "EPHEMERIS_TYPE": 0, "CLASSIFICATION_TYPE": "U", "NORAD_CAT_ID": 66563, "ELEMENT_SET_NO": 999, "REV_AT_EPOCH": 368, "BSTAR": -0.025296068, "MEAN_MOTION_DOT": -0.02002363, "MEAN_MOTION_DDOT": 0}, "tle": {"line1": "1 66563U 25268G   25340.58335648 -.02002363  00000+0 -25296-1 0  9997", "line2": "2 66563  42.9997 157.3072 0001325 259.9504 309.0934 15.62106782  3681"}}, "geometry": {"type": "Point", "coordinates": [127.74208222119374, -23.573898911586923]}}, {"type": "Feature", "properties": {"norad_id": 66564, "name": "STARLINK-35358", "group": "last-30-days", "lat": -22.411561745747665, "lon": 129.39094639943457, "alt_km": 386.71293702392177, "timestamp": "2025-12-06T20:37:54.813579+00:00", "meta": {"OBJECT_NAME": "STARLINK-35358", "OBJECT_ID": "2025-268H", "EPOCH": "2025-12-06T14:00:01.999872", "MEAN_MOTION": 15.6210414, "ECCENTRICITY": 0.0001402, "INCLINATION": 42.9997, "RA_OF_ASC_NODE": 157.3025, "ARG_OF_PERICENTER": 259.2458, "MEAN_ANOMALY": 311.7146, "EPHEMERIS_TYPE": 0, "CLASSIFICATION_TYPE": "U", "NORAD_CAT_ID": 66564, "ELEMENT_SET_NO": 999, "REV_AT_EPOCH": 363, "BSTAR": -0.025228945, "MEAN_MOTION_DOT": -0.0199758, "MEAN_MOTION_DDOT": 0}, "tle": {"line1": "1 66564U 25268H   25340.58335648 -.01997580  00000+0 -25229-1 0  9997", "line2": "2 66564  42.9997 157.3025 0001402 259.2458 311.7146 15.62104140  3633"}}, "geometry": {"type": "Point", "coordinates": [129.39094639943457, -22.411561745747665]}}, {"type": "Feature", "properties": {"norad_id": 66565, "name": "STARLINK-35893", "group": "last-30-days", "lat": -21.212110569488893, "lon": 131.04002638200515, "alt_km": 386.6313903194741, "timestamp": "2025-12-06T20:37:54.813590+00:00", "meta": {"OBJECT_NAME": "STARLINK-35893", "OBJECT_ID": "2025-268J", "EPOCH": "2025-12-06T14:00:01.999872", "MEAN_MOTION": 15.62132226, "ECCENTRICITY": 0.00010483, "INCLINATION": 43, "RA_OF_ASC_NODE": 157.2974, "ARG_OF_PERICENTER": 273.6039, "MEAN_ANOMALY": 299.3163, "EPHEMERIS_TYPE": 0, "CLASSIFICATION_TYPE": "U", "NORAD_CAT_ID": 66565, "ELEMENT_SET_NO": 999, "REV_AT_EPOCH": 368, "BSTAR": -0.026548548, "MEAN_MOTION_DOT": -0.02090255, "MEAN_MOTION_DDOT": 0}, "tle": {"line1": "1 66565U 25268J   25340.58335648 -.02090255  00000+0 -26549-1 0  9998", "line2": "2 66565  43.0000 157.2974 0001048 273.6039 299.3163 15.62132226  3685"}}, "geometry": {"type": "Point", "coordinates": [131.04002638200515, -21.212110569488893]}}]}